O3B FM3                 
1 40079U 14038A   26086.35059271 -.00000028  00000+0  00000+0 0  9999
2 40079   0.0529 354.5796 0000866  77.5671 287.8583  5.00115572208951
